GEO-KOMPSAT-2B          
1 45246U 20013B   26195.65575907 -.00000352  00000+0  00000+0 0  9993
2 45246   0.0120 280.5606 0000715 316.5940  59.6839  1.00270127 23559
BEIDOU-3 G2             
1 45344U 20017A   26197.14317777 -.00000151  00000+0  00000+0 0  9998
2 45344   2.9215  47.7426 0001940  61.9257 315.8648  1.00268904 23555
AEHF-6 (USA 298)        
1 45465U 20022B   26197.01218860 -.00000307  00000+0  00000+0 0  9990
2 45465   2.4863 301.5243 0042038  15.4009 119.0778  1.00270955 23303
BEIDOU-3 G3             
1 45807U 20040A   26197.15749580 -.00000365  00000+0  00000+0 0  9997
2 45807   2.5163  67.4801 0002217 307.5654  86.1228  1.00275996 22360
APSTAR-6D               
1 45863U 20045A   26196.72618751 -.00000326  00000+0  00000+0 0  9998
2 45863   0.0459  91.5440 0002338  17.1161 220.3305  1.00286156 22145
KOREASAT 116            
1 45920U 20048A   26197.07058691 -.00000372  00000+0  00000+0 0  9996
2 45920   0.0278 294.1874 0000965 211.9995 289.2929  1.00268008 21920
EXPRESS 103             
1 45985U 20053A   26197.14629779 -.00000291  00000+0  00000+0 0  9992
2 45985   0.0317 270.4823 0000587 182.9361 349.7251  1.00271627 21932
EXPRESS 80              
1 45986U 20053B   26195.96437936  .00000000  00000+0  00000+0 0  9990
2 45986   0.0235  45.2408 0001927 179.4739 135.2697  1.00273684 21913
BSAT-4B                 
1 46112U 20056A   26197.09281006 -.00000361  00000+0  00000+0 0  9997
2 46112   0.0415 149.2323 0004289 339.5848 308.3462  1.00271706 21679
MEV-2                   
1 46113U 20056B   26197.07891987 -.00000021  00000+0  00000+0 0  9994
2 46113   0.0545 251.7154 0000304 338.2041  91.4026  1.00272671 81001
GALAXY 30 (G-30)        
1 46114U 20056C   26196.96005456  .00000026  00000+0  00000+0 0  9994
2 46114   0.0128  68.4269 0002010  47.3472  38.6367  1.00272066 21587
GAOFEN-13 01            
1 46610U 20071A   26197.22196725 -.00000373  00000+0  00000+0 0  9998
2 46610   0.4712  86.1121 0045211 120.6209 285.3899  1.00265135 21218
TIANTONG-1 2            
1 46916U 20082A   26196.72436750 -.00000365  00000+0  00000+0 0  9999
2 46916   0.7575 331.7910 0001206 125.3235 222.1544  1.00273351 20932
LUCAS (JDRS-1)          
1 47202U 20089A   26197.10233325 -.00000246  00000+0  00000+0 0  9999
2 47202   0.0732 268.5831 0001616 178.3958 334.5973  1.00269969 20702
SXM-7                   
1 47240U 20096A   26197.11047832 -.00000216  00000+0  00000+0 0  9993
2 47240   0.0264  97.1091 0003528  25.9654 125.4849  1.00270266  7731
CMS-01                  
1 47256U 20099A   26197.15739199 -.00000175  00000+0  00000+0 0  9995
2 47256   0.0774  90.7914 0003448 175.8257 167.0243  1.00270779 20488
TURKSAT 5A              
1 47306U 21001A   26195.92092921  .00000145  00000+0  00000+0 0  9999
2 47306   0.0186  72.0805 0000214 188.2412  34.9010  1.00271052 20245
TIANTONG-1 3            
1 47321U 21003A   26197.14352444 -.00000163  00000+0  00000+0 0  9994
2 47321   1.7351 341.1091 0003000 142.9984 303.0661  1.00270033 20259
TJS-6                   
1 47613U 21010A   26197.16267786  .00000032  00000+0  00000+0 0  9996
2 47613   0.1781 261.6332 0003049 241.6692  27.7265  1.00272845 20098
SBIRS GEO-5 (USA 315)   
1 48618U 21042A   26196.93206110 -.00000274  00000+0  00000+0 0  9994
2 48618   5.0678 329.3430 0001434 153.9077 239.8646  1.00270730 19067
FENGYUN 4B              
1 48808U 21047A   26197.09281006 -.00000341  00000+0  00000+0 0  9990
2 48808   0.2227  79.9064 0006899 272.4027  79.5375  1.00278801 18859
SXM-8                   
1 48838U 21049A   26197.11047832 -.00000216  00000+0  00000+0 0  9996
2 48838   0.0175  47.1499 0005541 344.6881 216.7282  1.00270240 18877
TIANLIAN 1-05           
1 49011U 21063A   26197.20194713  .00000097  00000+0  00000+0 0  9993
2 49011   1.6668  80.4528 0001021  89.5691 213.5633  1.00272534 18368
STAR ONE D2             
1 49055U 21069A   26196.54301127  .00000000  00000+0  00000+0 0  9996
2 49055   0.0117  29.9249 0002582 103.5107 285.3561  1.00267571 18225
EUTELSAT QUANTUM        
1 49056U 21069B   26197.13676441  .00000115  00000+0  00000+0 0  9994
2 49056   0.0092   6.4781 0002045 102.6933 281.7132  1.00271733 18218
ZHONGXING-2E            
1 49062U 21071A   26197.10580823  .00000000  00000+0  00000+0 0  9992
2 49062   0.0190 244.5888 0001282 259.8457 285.6781  1.00267709 18328
TJS-7                   
1 49115U 21077A   26197.17890943 -.00000134  00000+0  00000+0 0  9990
2 49115   0.2827 263.9257 0002962 107.7109 247.2524  1.00269173  9834
CHINASAT 9B             
1 49125U 21080A   26197.09281006 -.00000322  00000+0  00000+0 0  9999
2 49125   0.0567 248.1660 0002157 257.1220 283.4361  1.00268265 17939
SHIJIAN-21 (SJ-21)      
1 49330U 21094A   26196.93882115 -.00000360  00000+0  00000+0 0  9994
2 49330   5.1792  61.0042 0051629 168.9694 169.6921  1.00277587  5640
SES-17                  
1 49332U 21095A   26197.11760755 -.00000283  00000+0  00000+0 0  9997
2 49332   0.0231  48.3124 0000808  67.9958 152.8788  1.00269563 18146
SYRACUSE 4A             
1 49333U 21095B   26196.49479853  .00000000  00000+0  00000+0 0  9990
2 49333   0.0256  65.0342 0001570  39.4977  52.4480  1.00269336 18236
QZS-1R (MICHIBIKI-1R)   
1 49336U 21096A   26195.57629205 -.00000304  00000+0  00000+0 0  9998
2 49336  37.5157  79.1769 0754906 272.2285 280.2291  1.00245239 17281
ZHONGXING-1D            
1 49505U 21114A   26197.23378425 -.00000347  00000+0  00000+0 0  9994
2 49505   0.0485 237.0045 0000674  16.5801 254.8008  1.00267894 17115
STPSAT-6                
1 49817U 21118A   26197.10519163 -.00000056  00000+0  00000+0 0  9993
2 49817   0.3935  85.0870 0000960 242.6649 252.2667  1.00270233 16866
EXPRESS AMU-7           
1 50001U 21123A   26197.22822344 -.00000253  00000+0  00000+0 0  9996
2 50001   0.0359 265.3420 0000436  37.8714 218.0020  1.00272412 16830
EXPRESS AMU-3           
1 50002U 21123B   26196.89791853 -.00000332  00000+0  00000+0 0  9997
2 50002   0.0080 315.1377 0000376  29.7170  15.1238  1.00272959  7312
TIANLIAN 2-02           
1 50005U 21124A   26197.16989223 -.00000026  00000+0  00000+0 0  9992
2 50005   0.8742  85.6355 0001666 161.8175 278.6682  1.00270799 16914
TURKSAT 5B              
1 50212U 21126A   26197.13563772  .00000136  00000+0  00000+0 0  9999
2 50212   0.0704 339.6733 0002331  13.8468  31.2710  1.00270326 16581
INMARSAT 6-F1           
1 50319U 21128A   26197.14395778  .00000000  00000+0  00000+0 0  9999
2 50319   0.0168  47.4984 0000078 331.3553  50.7137  1.00268381 16547
SHIYAN-12 01 (SY-12 01) 
1 50321U 21129A   26196.70695661  .00000137  00000+0  00000+0 0  9999
2 50321   3.7461  79.5252 0002608 286.1640 219.2302  1.00051422 16783
SHIYAN-12 02 (SY-12 02) 
1 50322U 21129B   26196.79223145 -.00000373  00000+0  00000+0 0  9996
2 50322   3.7454  79.5238 0003081  69.6589 180.4598  1.00476956 16781
TJS-9                   
1 50574U 21135A   26197.19211468 -.00000309  00000+0  00000+0 0  9991
2 50574   0.0490 100.8153 0002135 329.5116  70.1076  1.00271969 16724
GOES 18                 
1 51850U 22021A   26197.10018947  .00000086  00000+0  00000+0 0  9993
2 51850   0.0174 122.2673 0000421  55.0677  15.6609  1.00271202  6887
ZHONGXING-6D            
1 52255U 22038A   26194.84223098 -.00000359  00000+0  00000+0 0  9998
2 52255   0.0271 235.5038 0000603 296.7652 187.7170  1.00272740 15698
NILESAT 301             
1 52817U 22061A   26197.08447480 -.00000069  00000+0  00000+0 0  9998
2 52817   0.0457   0.9602 0003527  79.7373 236.6457  1.00269620 15028
CMS-02 (GSAT-24)        
1 52903U 22067A   26197.15739199 -.00000175  00000+0  00000+0 0  9997
2 52903   0.0644 253.1056 0001084 106.4782  74.0476  1.00269947 14896
MEASAT 3D               
1 52904U 22067B   26197.10580823 -.00000252  00000+0  00000+0 0  9997
2 52904   0.0425 314.6658 0000565  64.3578  44.5152  1.00271087 14939
SES-22                  
1 52933U 22071A   26197.09984279  .00000094  00000+0  00000+0 0  9998
2 52933   0.0163  40.3377 0000834  67.1203  83.3960  1.00271944  7815
WFOV (USA 332)          
1 52940U 22073A   26197.07058691 -.00000375  00000+0  00000+0 0  9999
2 52940   3.7830  78.1616 0001467 215.7417 144.6647  1.00266774 14669
TIANLIAN 2-03           
1 53100U 22078A   26197.12948435  .00000061  00000+0  00000+0 0  9994
2 53100   0.7423  77.4900 0000851  10.7409 262.9889  1.00272005 14836
SBIRS GEO-6 (USA 336)   
1 53355U 22092A   26196.94098780 -.00000299  00000+0  00000+0 0  9994
2 53355   3.2100 317.9670 0001679 153.2868 300.2808  1.00271164 14523
EUTELSAT KONNECT VHTS   
1 53765U 22110A   26196.88655816  .00000006  00000+0  00000+0 0  9997
2 53765   0.0578  98.9002 0002837   1.1959 155.4770  1.00269204  7124
ZHONGXING-1E            
1 53813U 22112A   26197.15739200  .00000000  00000+0  00000+0 0  9998
2 53813   0.0193 238.0961 0000819  37.0208 156.9552  1.00270572 14138
SES-20                  
1 53960U 22123A   26197.14146302 -.00000111  00000+0  00000+0 0  9991
2 53960   0.0157  66.2783 0001768  26.8194 148.7026  1.00269654 13827
SES-21                  
1 53961U 22123B   26196.95884124  .00000000  00000+0  00000+0 0  9997
2 53961   0.0396  39.4342 0001009  72.1203  36.5029  1.00268712  7508
GALAXY 33 (G-33)        
1 54026U 22128A   26196.95832123  .00000068  00000+0  00000+0 0  9991
2 54026   0.0111  52.8487 0001814  67.7217  25.2247  1.00272587 14032
GALAXY 34 (G-34)        
1 54027U 22128B   26197.15316204  .00000048  00000+0  00000+0 0  9990
2 54027   0.0115  44.1059 0001518 105.6630  70.3609  1.00273219 14203
ANGOSAT 2               
1 54033U 22131A   26196.77543619  .00000125  00000+0  00000+0 0  9996
2 54033   0.0222 113.2990 0000206 116.3358   6.1342  1.00272241 13765
EUTELSAT HOTBIRD 13F    
1 54048U 22134A   26197.12991771  .00000076  00000+0  00000+0 0  9996
2 54048   0.0590 284.3110 0002020  72.6744 356.7627  1.00270268 13668
LDPE-2                  
1 54219U 22144A   26196.47266913  .00000014  00000+0  00000+0 0  9999
2 54219   5.6794  63.4142 0002359 109.0609 160.7234  1.00543934 12126
